{
    "links": {
        "self": "http://www.neowsapp.com/rest/v1/neo/3869340?api_key=iIulBulltgU6a56xZRHN4H3l9WmuAYTsLGpBGhQ2"
    },
    "id": "3869340",
    "neo_reference_id": "3869340",
    "name": "(2019 SQ6)",
    "designation": "2019 SQ6",
    "nasa_jpl_url": "http://ssd.jpl.nasa.gov/sbdb.cgi?sstr=3869340",
    "absolute_magnitude_h": 25.6,
    "estimated_diameter": {
        "kilometers": {
            "estimated_diameter_min": 0.0201629919,
            "estimated_diameter_max": 0.0450858206
        },
        "meters": {
            "estimated_diameter_min": 20.1629919443,
            "estimated_diameter_max": 45.0858206172
        },
        "miles": {
            "estimated_diameter_min": 0.0125286985,
            "estimated_diameter_max": 0.0280150214
        },
        "feet": {
            "estimated_diameter_min": 66.1515504905,
            "estimated_diameter_max": 147.9193637137
        }
    },
    "is_potentially_hazardous_asteroid": false,
    "close_approach_data": [
        {
            "close_approach_date": "2019-09-20",
            "close_approach_date_full": "2019-Sep-20 09:58",
            "epoch_date_close_approach": 1568973480000,
            "relative_velocity": {
                "kilometers_per_second": "6.6088657798",
                "kilometers_per_hour": "23791.9168071051",
                "miles_per_hour": "14783.3718627259"
            },
            "miss_distance": {
                "astronomical": "0.0435291602",
                "lunar": "16.9328433178",
                "kilometers": "6511869.648808774",
                "miles": "4046288.1708941212"
            },
            "orbiting_body": "Earth"
        }
    ],
    "orbital_data": {
        "orbit_id": "3",
        "orbit_determination_date": "2019-10-05 06:19:48",
        "first_observation_date": "2019-09-28",
        "last_observation_date": "2019-10-05",
        "data_arc_in_days": 7,
        "observations_used": 30,
        "orbit_uncertainty": "8",
        "minimum_orbit_intersection": ".0406382",
        "jupiter_tisserand_invariant": "3.536",
        "epoch_osculation": "2458755.5",
        "eccentricity": ".5131404896682865",
        "semi_major_axis": "2.135312615661421",
        "inclination": "1.902363141394745",
        "ascending_node_longitude": "213.6355402436231",
        "orbital_period": "1139.700203342369",
        "perihelion_distance": "1.03959725446605",
        "perihelion_argument": "136.5975952834873",
        "aphelion_distance": "3.231027976856793",
        "perihelion_time": "2458741.562425527246",
        "mean_anomaly": "4.402497073771393",
        "mean_motion": ".3158725416949453",
        "equinox": "J2000",
        "orbit_class": {
            "orbit_class_type": "AMO",
            "orbit_class_description": "Near-Earth asteroid orbits similar to that of 1221 Amor",
            "orbit_class_range": "1.017 AU < q (perihelion) < 1.3 AU"
        }
    },
    "is_sentry_object": false
}